OPTUS D3                
1 35756U 09044B   16282.86663873 -.00000157  00000-0  00000-0 0  9993
2 35756   0.0168  33.7235 0002545 164.1420 288.0501  1.00269318 26091
PALAPA D                
1 35812U 09046A   16282.63704078 -.00000367  00000-0  00000-0 0  9999
2 35812   0.0397  35.3486 0001989 187.5923 137.0742  1.00272851 26199
NIMIQ 5                 
1 35873U 09050A   16283.07827082 -.00000266  00000-0  00000+0 0  9998
2 35873   0.0209 116.6104 0002140  70.3115 146.7174  1.00272286 25883
AMAZONAS 2              
1 35942U 09054A   16282.47640743 -.00000291  00000-0  00000+0 0  9997
2 35942   0.0391 129.7607 0004878  39.1613 319.1427  1.00274561 25707
COMSATBW-1              
1 35943U 09054B   16282.91226421  .00000014  00000-0  00000-0 0  9993
2 35943   0.0602  91.8542 0002919 122.2487 195.3166  1.00273904 25824
NSS-12                  
1 36032U 09058A   16282.79212428  .00000062  00000-0  00000-0 0  9998
2 36032   0.0530  73.8226 0002705 131.7286 154.4663  1.00272494 25469
THOR 6                  
1 36033U 09058B   16283.22482122 -.00000019  00000-0  00000+0 0  9990
2 36033   0.0209 145.1128 0001896  65.6714 247.5944  1.00272376 25485
INTELSAT 14 (IS-14)     
1 36097U 09064A   16283.07461101 -.00000283  00000-0  00000+0 0  9997
2 36097   0.0159 182.9388 0002439  12.9026 164.1510  1.00270550 25239
EUTELSAT 36B            
1 36101U 09065A   16283.21892223  .00000146  00000-0  00000+0 0  9990
2 36101   0.0675   1.9888 0004354 198.1913 292.8332  1.00270637 25331
INTELSAT 15 (IS-15)     
1 36106U 09067A   16282.95682157 -.00000195  00000-0  00000-0 0  9996
2 36106   0.0282 277.8883 0002266 283.4584 246.2909  1.00272510  5828
DIRECTV 12              
1 36131U 09075A   16283.15674186 -.00000112  00000-0  00000+0 0  9997
2 36131   0.0075 210.0119 0000279 343.8191 138.0236  1.00271633 24900
BEIDOU G1               
1 36287U 10001A   16282.32655892 -.00000291  00000-0  10000-3 0  9994
2 36287   1.5261   4.5895 0005226 210.7901  59.5453  1.00277300 24680
RADUGA-1M 2             
1 36358U 10002A   16283.02365535 -.00000193  00000-0  00000+0 0  9990
2 36358   0.0278 256.4802 0003598 353.6009 221.5346  1.00272008 24539
SDO                     
1 36395U 10005A   16283.15674186 -.00000062  00000-0  00000+0 0  9998
2 36395  28.4991 144.9577 0001338 136.0460  51.8659  1.00274702 24556
INTELSAT 16 (IS-16)     
1 36397U 10006A   16282.23801925 -.00000294  00000-0  00000+0 0  9999
2 36397   0.0267 273.2748 0001546 284.5821 207.0561  1.00272698 24253
GOES 15                 
1 36411U 10008A   16283.32433441  .00000078  00000-0  00000+0 0  9992
2 36411   0.3038 272.2944 0003028 283.0202 164.7072  1.00280645 24213
ECHOSTAR 14             
1 36499U 10010A   16283.19307418 -.00000009  00000-0  00000+0 0  9995
2 36499   0.0156 225.9279 0002889 333.1516 129.7931  1.00273070 24053
SES-1                   
1 36516U 10016A   16282.42058751 -.00000123  00000-0  00000+0 0  9996
2 36516   0.0441  51.0731 0001954 131.5605 245.2678  1.00271783 23658
ASTRA 3B                
1 36581U 10021A   16282.88548213  .00000128  00000-0  00000+0 0  9995
2 36581   0.0601 319.2032 0003338 245.6702 155.3339  1.00272563 23173
COMSATBW-2              
1 36582U 10021B   16283.15894958  .00000079  00000-0  00000+0 0  9992
2 36582   0.0372 267.7377 0002078 305.7546 235.1308  1.00272215 23517
BEIDOU G3               
1 36590U 10024A   16282.89496611 -.00000363  00000-0  00000+0 0  9995
2 36590   1.3612  24.8917 0005348 298.0325 127.7712  1.00270357 23308
BADR-5                  
1 36592U 10025A   16282.84782053  .00000136  00000-0  00000-0 0  9999
2 36592   0.0094 179.3447 0004890   6.3764 163.3990  1.00272752 17737
COMS 1                  
1 36744U 10032A   16282.69596968 -.00000353  00000-0  00000+0 0  9998
2 36744   0.0382 105.2497 0000625  80.7548 210.5160  1.00273255 23175
ARABSAT-5A              
1 36745U 10032B   16282.84424272  .00000144  00000-0  00000-0 0  9992
2 36745   0.0556 359.5032 0003044 194.8460 157.9862  1.00269578 23172
ECHOSTAR 15             
1 36792U 10034A   16282.47640743 -.00000291  00000-0  00000+0 0  9991
2 36792   0.0438  53.4244 0002295 155.6183 278.3835  1.00271181 22914
NILESAT 201             
1 36830U 10037A   16283.28716044 -.00000067  00000-0  00000+0 0  9996
2 36830   0.0450 165.0032 0004376  16.3938 293.3025  1.00272615 22819
RASCOM-QAF 1R           
1 36831U 10037B   16282.94191844  .00000010  00000-0  00000+0 0  9991
2 36831   0.0125 254.6559 0005598 319.8078 145.5309  1.00271516 22813
CHINASAT 6A (ZX 6A)     
1 37150U 10042A   16282.88664028 -.00000363  00000-0  00000+0 0  9996
2 37150   0.0159 223.9116 0001019 243.3470 354.9517  1.00270096 22420
QZS-1 (MICHIBIKI)       
1 37158U 10045A   16280.65468308 -.00000181  00000-0  00000+0 0  9991
2 37158  40.7357 163.0205 0748629 270.3706 313.2656  1.00250106 22218
XM-5                    
1 37185U 10053A   16283.04841103 -.00000214  00000-0  00000+0 0  9991
2 37185   0.0168 196.7976 0000499 270.1066 203.4068  1.00269512 21967
BSAT-3B                 
1 37207U 10056B   16282.94268162 -.00000360  00000-0  00000-0 0  9998
2 37207   0.0477 359.9508 0002674 261.6373 205.6541  1.00273292 16809
BEIDOU G4               
1 37210U 10057A   16282.83695054 -.00000120  00000-0  00000-0 0  9999
2 37210   0.9506  52.1546 0008923 169.9729 257.0556  1.00274109 21819
SKYTERRA 1              
1 37218U 10061A   16282.14387025 -.00000128  00000-0  00000+0 0  9999
2 37218   3.5378 327.9268 0006801 192.5204 167.2433  1.00272111 21749
ZHONGXING-20A           
1 37234U 10064A   16282.89554247 -.00000347  00000-0  00000-0 0  9998
2 37234   0.0254 146.6901 0002992 110.5736 213.0640  1.00268339 21555
HYLAS 1                 
1 37237U 10065A   16283.35955809 -.00000242  00000-0  00000+0 0  9996
2 37237   0.0804  68.8016 0001539 115.9721 289.6053  1.00272656 21532
INTELSAT 17 (IS-17)     
1 37238U 10065B   16282.96143248 -.00000011  00000-0  00000-0 0  9994
2 37238   0.0196 228.3912 0002397 337.7248 224.0301  1.00271953 17944
EUTELSAT KA-SAT 9A      
1 37258U 10069A   16282.92497435  .00000053  00000-0  00000+0 0  9990
2 37258   0.0591 283.1719 0002402 270.4852 166.3673  1.00272265 21346
HISPASAT 1E             
1 37264U 10070A   16282.35181654 -.00000225  00000-0  00000+0 0  9991
2 37264   0.0486 111.2585 0005119  68.9333 293.8982  1.00271803 21188
KOREASAT 6              
1 37265U 10070B   16282.89461874 -.00000371  00000-0  00000+0 0  9998
2 37265   0.0147 121.0350 0001640  87.9465 247.0453  1.00273988 21207
ELEKTRO-L 1 (GOMS 2)    
1 37344U 11001A   16283.23284530 -.00000128  00000-0  00000+0 0  9992
2 37344   1.9251  78.8500 0001971 278.2639  90.3181  1.00254383 20992
BEIDOU IGSO 3           
1 37384U 11013A   16282.96467875 -.00000129  00000-0  10000-3 0  9999
2 37384  57.5133  75.5687 0025553 201.2500 209.3456  1.00278787 20202
INTELSAT NEW DAWN       
1 37392U 11016A   16282.97288741  .00000147  00000-0  00000+0 0  9999
2 37392   0.0216 233.9819 0001067 323.2216 203.8756  1.00272939 20032
YAHSAT 1A               
1 37393U 11016B   16282.92785751  .00000091  00000-0  00000-0 0  9997
2 37393   0.0147 249.8806 0001414 337.1220 177.5332  1.00273011  6924
TELSTAR 14R             
1 37602U 11021A   16283.37105265 -.00000289  00000-0  00000+0 0  9991
2 37602   0.0523  75.2717 0001919 201.7413 171.9840  1.00272724 20318
GSAT-8                  
1 37605U 11022A   16283.16035297  .00000075  00000-0  00000+0 0  9991
2 37605   0.0394  71.2164 0006604 176.9024 242.8967  1.00272281 19769
ST-2                    
1 37606U 11022B   16282.95671113 -.00000221  00000-0  00000-0 0  9996
2 37606   0.0178 179.5851 0001479  28.1263 242.7514  1.00271916 19786
CHINASAT 10 (ZX 10)     
1 37677U 11026A   16282.97646549 -.00000362  00000-0  00000-0 0  9991
2 37677   0.0182 260.4087 0004435 348.8418 230.8328  1.00271307 19492
TIANLIAN 1-02           
1 37737U 11032A   16282.75140118  .00000023  00000-0  00000+0 0  9994
2 37737   2.0772  78.5425 0006709 147.0433 239.5695  1.00275489 19243
GSAT-12                 
1 37746U 11034A   16283.08383106 -.00000174  00000-0  00000+0 0  9997
2 37746   0.1000  93.6059 0004690  22.0947  15.6208  1.00271624 19471
SES-3                   
1 37748U 11035A   16282.42053416 -.00000111  00000-0  00000+0 0  9996
2 37748   0.0309 291.0768 0001852 265.7137 229.1050  1.00272885 19218
KAZSAT-2                
1 37749U 11035B   16282.95814178 -.00000208  00000-0  00000-0 0  9993
2 37749   0.0373 300.6740 0001547 316.9282 191.8798  1.00272116 17925
ASTRA 1N                
1 37775U 11041A   16283.16127253  .00000111  00000-0  00000+0 0  9995
2 37775   0.0572  30.7602 0001499  91.3978 333.3358  1.00274019 18925
BSAT-3C (JCSAT-110R)    
1 37776U 11041B   16282.94267949 -.00000360  00000-0  00000-0 0  9996
2 37776   0.0331 101.1588 0000142 190.1066 176.0876  1.00272880 15024
PAKSAT-1R               
1 37779U 11042A   16282.76531491  .00000145  00000-0  00000-0 0  9996
2 37779   0.0049  82.6072 0001929 146.5012 102.1622  1.00276532 18990
CHINASAT 1A (ZX 1A)     
1 37804U 11047A   16282.89554458 -.00000346  00000-0  00000+0 0  9995
2 37804   0.0362  81.3324 0001531 187.8992 201.0006  1.00271361 18605
COSMOS 2473             
1 37806U 11048A   16282.98729927 -.00000117  00000-0  00000+0 0  9999
2 37806   0.0450 126.4813 0003955 139.6801  93.8245  1.00271794 18595
SES-2                   
1 37809U 11049A   16282.48985020 -.00000205  00000-0  00000+0 0  9994
2 37809   0.0451  57.7124 0002599 124.3943 284.8101  1.00272484 18535
ARABSAT-5C              
1 37810U 11049B   16282.81368735  .00000115  00000-0  00000+0 0  9990
2 37810   0.0649  14.6864 0003045 184.5185 131.5971  1.00273459 18426
EUTELSAT 7 WEST A       
1 37816U 11051A   16281.97295110 -.00000069  00000-0  00000+0 0  9990
2 37816   0.0693  32.5261 0004692 171.9470 155.5347  1.00273221 18483
